{"type":"FeatureCollection","features":[{"type":"Feature","properties":{"name":"Thành phố Huế","osm_id":1891483,"admin_level":4,"source":"OpenStreetMap via Overpass API"},"geometry":{"type":"MultiPolygon","coordinates":[[[[107.1464652,16.268917],[107.1464935,16.2683504],[107.147486,16.2673084],[107.1484681,16.2653167],[107.1491191,16.2642986],[107.1504116,16.2633566],[107.151628,16.2632823],[107.1520955,16.2630505],[107.1524953,16.2625098],[107.1526976,16.2614756],[107.1533189,16.259694],[107.1537816,16.2590494],[107.1554783,16.2579588],[107.1570236,16.2567046],[107.1570852,16.2564769],[107.1567774,16.255675],[107.1557335,16.2539517],[107.1542739,16.2532647],[107.1539695,16.2527724],[107.1539114,16.2513488],[107.1548646,16.248636],[107.1550242,16.2474422],[107.1548999,16.2468545],[107.1540141,16.2453055],[107.1538355,16.2447826],[107.1535537,16.2423242],[107.1534017,16.2418939],[107.1529651,16.2410957],[107.1522989,16.240369],[107.1506229,16.2398562],[107.1502002,16.2395241],[107.1495176,16.2385675],[107.1492462,16.2376758],[107.1493428,16.236302],[107.1498644,16.2357617],[107.1509284,16.2352559],[107.1536301,16.2344227],[107.1543367,16.2339749],[107.1547212,16.2335626],[107.1553081,16.2326525],[107.1554219,16.2315565],[107.1552975,16.23104],[107.1548636,16.2302977],[107.1530839,16.2286822],[107.1520861,16.2261765],[107.150397,16.2240729],[107.1475504,16.2218301],[107.1469505,16.2211282],[107.1460517,16.2189664],[107.1446428,16.2138755],[107.1447771,16.2131334],[107.1453308,16.2115818],[107.1456494,16.21132],[107.1459525,16.2113212],[107.1465477,16.211649],[107.1470925,16.2115768],[107.1473517,16.2114135],[107.1477013,16.2108535],[107.1482921,16.2093679],[107.1483034,16.208832],[107.1475448,16.2059101],[107.1472729,16.2022799],[107.1476185,16.2018704],[107.1484435,16.2014924],[107.1489388,16.2011153],[107.1498556,16.1997343],[107.1500904,16.1988081],[107.1502055,16.1969961],[107.1499763,16.1955665],[107.1500545,16.1947551],[107.1498998,16.1943361],[107.1487887,16.1935996],[107.1486072,16.1929688],[107.1492086,16.1904861],[107.1498579,16.1895225],[107.1498166,16.1879265],[107.1505522,16.1867532],[107.1535942,16.1845855],[107.1543672,16.1837319],[107.1552194,16.18172],[107.1560101,16.1781374],[107.1564418,16.177063],[107.1570491,16.176493],[107.1571075,16.1762254],[107.1569786,16.1756628],[107.1567179,16.1714214],[107.1586641,16.1698882],[107.158996,16.1693802],[107.1589906,16.1688757],[107.1593788,16.1679222],[107.1595916,16.1677419],[107.1601124,16.1676773],[107.1618505,16.1680138],[107.1631203,16.166946],[107.1644382,16.1667994],[107.1661076,16.1660206],[107.1669184,16.1659411],[107.1681238,16.1661547],[107.1687704,16.1663758],[107.169201,16.1667076],[107.1696731,16.1664864],[107.1705064,16.1657481],[107.1721925,16.1638284],[107.1728349,16.1625662],[107.1745023,16.1600204],[107.1752342,16.1579301],[107.1755155,16.1575812],[107.1759046,16.1574056],[107.1771838,16.1573108],[107.1779611,16.1564917],[107.1817605,16.1534095],[107.1823702,16.1522989],[107.1838877,16.1519449],[107.1855607,16.1521786],[107.1862697,16.1520174],[107.1866891,16.1514919],[107.1878831,16.1492087],[107.1895404,16.1483539],[107.1906895,16.14804],[107.1917028,16.1474133],[107.1924683,16.1464778],[107.1931287,16.1454138],[107.1936269,16.1442097],[107.1950449,16.1454483],[107.1964401,16.1442013],[107.1974932,16.1438843],[107.1982839,16.1439448],[107.2001784,16.1443893],[107.2020672,16.145129],[107.2070091,16.1454525],[107.2076509,16.1453002],[107.2088202,16.1447017],[107.2136772,16.141166],[107.2152567,16.1411616],[107.2161754,16.1414975],[107.2177307,16.1417415],[107.2192838,16.1414818],[107.2200762,16.1410501],[107.2237829,16.1374484],[107.224058,16.1373687],[107.2242121,16.1374438],[107.2246814,16.1388909],[107.2245988,16.1413509],[107.2278014,16.1430026],[107.2291359,16.1432882],[107.2317377,16.1443204],[107.2335918,16.1453678],[107.2354279,16.14617],[107.240003,16.1470779],[107.2413493,16.1467808],[107.2417761,16.1469521],[107.24259,16.1476212],[107.2452358,16.1468949],[107.2454788,16.1466944],[107.2456577,16.1462376],[107.2461586,16.1462609],[107.2467703,16.1456029],[107.2470025,16.1447143],[107.2470353,16.1433148],[107.2472923,16.1425405],[107.2492457,16.139928],[107.2511911,16.1390583],[107.2522124,16.1383535],[107.2545319,16.1355791],[107.2556704,16.1350328],[107.2558959,16.1350897],[107.2567834,16.1358322],[107.2579145,16.1364335],[107.2590209,16.1366592],[107.2600833,16.1366083],[107.2616621,16.1370269],[107.2627445,16.1369363],[107.2633082,16.1361784],[107.2641577,16.1335777],[107.2645206,16.1313383],[107.2653019,16.1299451],[107.2654489,16.1293797],[107.2653474,16.1285498],[107.2649974,16.1274258],[107.2650227,16.1269508],[107.2660595,16.1253343],[107.2661711,16.124835],[107.266238,16.1223199],[107.2671848,16.1189572],[107.2678794,16.1181575],[107.2693906,16.1173204],[107.2705571,16.116454],[107.2713503,16.1160833],[107.2728082,16.1159768],[107.2742551,16.1164955],[107.2752075,16.1166636],[107.2771963,16.1163158],[107.2781106,16.1158313],[107.2789101,16.1160304],[107.2801516,16.1173526],[107.2821214,16.1180141],[107.2837249,16.1188278],[107.2839981,16.1189043],[107.2842444,16.1186739],[107.2853436,16.1156056],[107.286155,16.1141724],[107.287305,16.1128543],[107.2882771,16.1120723],[107.2897158,16.1118789],[107.2899893,16.1116682],[107.2905843,16.110089],[107.2914827,16.1086908],[107.2909302,16.1075413],[107.2936421,16.104816],[107.2941238,16.103285],[107.2941113,16.1021871],[107.2946424,16.1004009],[107.2953676,16.0994731],[107.2965518,16.0984811],[107.2983666,16.0963546],[107.2999214,16.0955959],[107.302164,16.0933461],[107.3024936,16.0926896],[107.3022941,16.0913268],[107.3028889,16.0897475],[107.3053898,16.0859816],[107.3058036,16.0846417],[107.3064077,16.0838635],[107.3073542,16.0817761],[107.3078172,16.0811577],[107.3085853,16.0804373],[107.3099863,16.0796505],[107.3109771,16.0787494],[107.3127554,16.07877],[107.3137733,16.0784424],[107.3139746,16.0781829],[107.3140117,16.0778463],[107.3136124,16.0769009],[107.3135425,16.07615],[107.3137222,16.075792],[107.3143889,16.0751319],[107.3146834,16.0740998],[107.3157552,16.0731189],[107.3168241,16.0719004],[107.3193361,16.0700137],[107.3199678,16.0698684],[107.3220138,16.0700835],[107.3252021,16.070128],[107.3264132,16.0688486],[107.3278967,16.067911],[107.3293556,16.0661451],[107.3291689,16.0650797],[107.3293668,16.0635324],[107.32934,16.0622289],[107.3297096,16.0606224],[107.3307937,16.0589686],[107.3333106,16.0575167],[107.3342208,16.0567353],[107.3342187,16.0559503],[107.3335149,16.0550871],[107.3336709,16.0549196],[107.3348148,16.0551065],[107.3374719,16.0551766],[107.3389064,16.0555368],[107.3403922,16.0567867],[107.3426921,16.0577704],[107.3434128,16.0582373],[107.3437724,16.0592819],[107.3439262,16.0602102],[107.3441756,16.0605634],[107.3461977,16.0622426],[107.3466284,16.0623765],[107.3485094,16.0624745],[107.3498606,16.0617535],[107.3511719,16.0617066],[107.3521654,16.0618527],[107.3547726,16.0626198],[107.3581952,16.0634011],[107.3586312,16.0633714],[107.3592953,16.0630911],[107.3619719,16.0615477],[107.362483,16.0613684],[107.364883,16.0609668],[107.3659732,16.0612798],[107.3699685,16.0638865],[107.372494,16.0679945],[107.3738125,16.0709607],[107.3744493,16.0716368],[107.3758964,16.0724653],[107.3772171,16.0734442],[107.3778379,16.0741431],[107.3784303,16.0740268],[107.3789624,16.0734496],[107.3798161,16.0720302],[107.3820864,16.0696019],[107.3845438,16.0679967],[107.3864756,16.06533],[107.3886885,16.0625854],[107.3891222,16.0623571],[107.3896604,16.0623014],[107.3903807,16.0624422],[107.3919636,16.063705],[107.3925929,16.0639091],[107.3934515,16.0638239],[107.3949516,16.0631058],[107.3972317,16.0627941],[107.3981152,16.0624082],[107.3986785,16.0623553],[107.3991571,16.0624757],[107.4004401,16.0634103],[107.4008353,16.0642752],[107.4005913,16.0653213],[107.4006708,16.0676552],[107.4005882,16.0685019],[107.4007277,16.0691233],[107.4024374,16.0704576],[107.4030642,16.0714165],[107.4038062,16.0748174],[107.4031733,16.0759094],[107.4032785,16.0774567],[107.4035639,16.0780966],[107.4072119,16.0812313],[107.4076373,16.081388],[107.4091018,16.0815206],[107.4097208,16.0817619],[107.410536,16.0823464],[107.4109303,16.0827252],[107.4117539,16.0844298],[107.4120406,16.0845492],[107.4126503,16.0842869],[107.4178552,16.0815956],[107.4181216,16.0813318],[107.4183025,16.0806174],[107.4188466,16.0797338],[107.4203723,16.0785492],[107.4215387,16.0783857],[107.4230758,16.0792636],[107.4237771,16.0793324],[107.424653,16.0789827],[107.4260103,16.0780487],[107.4266307,16.077882],[107.4273218,16.0779723],[107.4312395,16.0792434],[107.4322378,16.0798702],[107.4350693,16.0834464],[107.4362432,16.0829902],[107.440262,16.0821208],[107.4433143,16.0829187],[107.4455055,16.0859305],[107.4458282,16.0867617],[107.4459516,16.0878299],[107.4464597,16.0892448],[107.4462671,16.0911545],[107.4491191,16.0913831],[107.449269,16.0904016],[107.449532,16.0898236],[107.4507678,16.0886899],[107.4518326,16.0879078],[107.4522929,16.0879513],[107.4527343,16.0883258],[107.4529741,16.0882809],[107.4531464,16.0880891],[107.4531352,16.0871827],[107.4527084,16.0862176],[107.4526504,16.0855133],[107.4543604,16.0846737],[107.4563829,16.0831722],[107.4570645,16.0822452],[107.4572901,16.0817953],[107.4576764,16.0798032],[107.4579644,16.0792161],[107.4588234,16.078088],[107.4588383,16.0772184],[107.4590084,16.0769267],[107.4596779,16.0764088],[107.4598168,16.0761543],[107.4597905,16.0751614],[107.4601766,16.0743583],[107.4605585,16.0741054],[107.461138,16.0732043],[107.4611574,16.0727072],[107.4611003,16.0722358],[107.4605237,16.0712733],[107.4589723,16.0703719],[107.4545593,16.0674288],[107.4540664,16.067012],[107.4531005,16.0657063],[107.4526666,16.0648542],[107.4518123,16.0642675],[107.4506524,16.0638833],[107.4502112,16.0634909],[107.4492918,16.0617871],[107.4492561,16.0609676],[107.4494502,16.0589901],[107.4492583,16.0579985],[107.4480806,16.0561485],[107.4463405,16.0543394],[107.4460089,16.0538079],[107.4458887,16.0520408],[107.4460164,16.0517294],[107.4464177,16.05136],[107.4468974,16.0496526],[107.4469833,16.048285],[107.4468932,16.0461618],[107.4474272,16.0436463],[107.4474208,16.0431246],[107.4466649,16.0411332],[107.446848,16.0392925],[107.4470968,16.0386684],[107.4474513,16.0382669],[107.4481404,16.0379361],[107.4537171,16.0369714],[107.4549537,16.0360214],[107.4570829,16.0335477],[107.457707,16.0324495],[107.4578523,16.0303712],[107.4582159,16.0293475],[107.4584815,16.0290042],[107.4589253,16.0286044],[107.4599603,16.0281565],[107.462274,16.0285138],[107.463051,16.0285571],[107.463626,16.0283731],[107.4647136,16.0275753],[107.4654855,16.0263659],[107.4663638,16.0255315],[107.467218,16.0250651],[107.4672612,16.0246607],[107.4677628,16.0248659],[107.467954,16.025369],[107.4682548,16.0257357],[107.4692459,16.0262767],[107.4697798,16.0267581],[107.4701713,16.0277773],[107.4711979,16.0288381],[107.47177,16.0299341],[107.4726283,16.0308931],[107.4729549,16.0325683],[107.4730956,16.0327841],[107.4754672,16.0334932],[107.4769418,16.0349674],[107.4777899,16.0354392],[107.4784917,16.0356622],[107.4795226,16.0357035],[107.4802099,16.035252],[107.4820415,16.0345222],[107.4823316,16.0346114],[107.4828231,16.0350287],[107.4841052,16.0353084],[107.4843792,16.0355222],[107.4844155,16.0360844],[107.4845806,16.0364246],[107.4854323,16.0371539],[107.4852809,16.0380509],[107.4855137,16.0387607],[107.486946,16.0397609],[107.4872398,16.0402509],[107.4876665,16.0406347],[107.4882469,16.0409041],[107.4889023,16.0409759],[107.4896663,16.0405655],[107.4912912,16.0404208],[107.4924244,16.039772],[107.4939088,16.039172],[107.4953949,16.0391835],[107.4960118,16.0390804],[107.4964103,16.0388547],[107.4969578,16.0380568],[107.4970632,16.0375438],[107.4977177,16.0362499],[107.4981335,16.034448],[107.4987398,16.0341169],[107.4998474,16.0327595],[107.5005126,16.032213],[107.5011027,16.0318727],[107.5017249,16.0318108],[107.5025511,16.0310993],[107.5045252,16.0297485],[107.5049724,16.0296854],[107.5052016,16.0294871],[107.5052395,16.0290521],[107.5045037,16.0282043],[107.5044637,16.0279565],[107.5045601,16.0277609],[107.5051292,16.0274566],[107.5055912,16.0267616],[107.5058806,16.0250749],[107.5063759,16.024147],[107.5062418,16.0224941],[107.5063491,16.0221487],[107.5072203,16.0215823],[107.5076187,16.0208607],[107.5092459,16.0186735],[107.5102866,16.0180135],[107.511102,16.01724],[107.513237,16.0160232],[107.5153238,16.0156004],[107.5170028,16.0149765],[107.5193783,16.014916],[107.5204897,16.0151879],[107.5224531,16.0164254],[107.5236371,16.0165974],[107.5246469,16.0165393],[107.5252426,16.0164151],[107.5262833,16.0159407],[107.5286114,16.0157035],[107.5310898,16.0151776],[107.5333911,16.0139143],[107.5342011,16.0133007],[107.5361589,16.0129155],[107.5389969,16.0120013],[107.540499,16.0118466],[107.5448441,16.0105988],[107.5498867,16.0110732],[107.5504017,16.0131254],[107.5506806,16.014961],[107.5527406,16.0149713],[107.5541997,16.0140741],[107.5556052,16.0162397],[107.5577509,16.0178072],[107.5587165,16.0197769],[107.560519,16.0220868],[107.5605927,16.0224115],[107.5604046,16.0232082],[107.5583142,16.0257991],[107.5592744,16.0267478],[107.5599021,16.0286039],[107.5605941,16.0296041],[107.5606316,16.0309343],[107.5583915,16.0318971],[107.557644,16.0325693],[107.5571419,16.0337279],[107.5567166,16.0355591],[107.5562114,16.0366673],[107.5548488,16.0380286],[107.5538242,16.040029],[107.5523221,16.0416453],[107.5526976,16.0428233],[107.5527738,16.0441538],[107.5530328,16.0445355],[107.5569093,16.0459499],[107.5577637,16.0470107],[107.5598828,16.0487728],[107.5613153,16.0503441],[107.5641281,16.0514274],[107.5669657,16.0522213],[107.5687093,16.0536605],[107.5703444,16.0542446],[107.5718277,16.0552715],[107.5722554,16.0553135],[107.5727609,16.0551649],[107.5739483,16.0541315],[107.579085,16.0547364],[107.5864284,16.0567666],[107.5898287,16.0566136],[107.5923392,16.0570586],[107.5958011,16.0562243],[107.5972227,16.0570447],[107.5999936,16.057003],[107.6073731,16.0602081],[107.6105269,16.0609909],[107.6195061,16.0639752],[107.6213778,16.0615539],[107.6225236,16.0592815],[107.6234812,16.0578304],[107.624572,16.0557775],[107.6249564,16.0543197],[107.6253238,16.051407],[107.6252916,16.0501852],[107.6257963,16.0489539],[107.6257254,16.0485008],[107.6252139,16.0473034],[107.6252246,16.0463651],[107.6250812,16.0458995],[107.6233611,16.0440511],[107.6229191,16.0431819],[107.6221902,16.0411603],[107.6216344,16.0404952],[107.6204567,16.0395909],[107.6197739,16.0382993],[107.6196517,16.0375775],[107.619651,16.0360334],[107.6199125,16.0340781],[107.6202592,16.0330281],[107.621094,16.0318418],[107.6217705,16.0314512],[107.622583,16.0313002],[107.6247183,16.0317604],[107.626106,16.0317617],[107.6276202,16.0313758],[107.6289473,16.0306817],[107.6294989,16.0305284],[107.6311322,16.0309189],[107.6323003,16.0309807],[107.6334643,16.0303053],[107.6400024,16.0273778],[107.6407562,16.0268941],[107.6426911,16.0252629],[107.6444775,16.0241698],[107.6455729,16.0237739],[107.6479214,16.0232585],[107.6485916,16.0220313],[107.6498473,16.0204987],[107.6504427,16.0195036],[107.6508551,16.0192452],[107.6561934,16.0194314],[107.6592833,16.01922],[107.661887,16.0189202],[107.6639669,16.0183282],[107.6644514,16.0178979],[107.6652056,16.0166471],[107.6666057,16.0154869],[107.6693094,16.0128366],[107.6716634,16.0121444],[107.6721144,16.0118072],[107.6723372,16.0111029],[107.671975,16.0096801],[107.6719587,16.0091709],[107.672925,16.0062777],[107.6748407,16.00568],[107.6757252,16.0051949],[107.6762021,16.0047391],[107.6764655,16.0042873],[107.6764227,15.9999569],[107.6771527,15.9993179],[107.6791218,15.9984496],[107.6803461,15.9980656],[107.6845199,15.9973832],[107.6954811,15.9949842],[107.6966259,15.9949377],[107.7006818,15.9952681],[107.7060771,15.9952839],[107.7071073,15.9954958],[107.7081366,15.9961032],[107.7112269,15.9996671],[107.7148103,16.00108],[107.7175569,16.002627],[107.7188584,16.0037164],[107.7203464,16.0055352],[107.7240586,16.0076803],[107.724751,16.0084277],[107.7254963,16.0103307],[107.7260915,16.011265],[107.7266872,16.0119291],[107.7274032,16.0134536],[107.7268637,16.0152127],[107.7268364,16.0159629],[107.727021,16.0165395],[107.7280927,16.0181888],[107.7281715,16.0185347],[107.7279961,16.0201894],[107.7281155,16.0219375],[107.7275669,16.0243967],[107.7262575,16.0255392],[107.7258493,16.0264603],[107.7259543,16.0276837],[107.7265584,16.0303724],[107.7290667,16.0311398],[107.7299179,16.0315857],[107.7305817,16.0328523],[107.731011,16.0334073],[107.7318446,16.0342002],[107.7328026,16.0348218],[107.7340472,16.0361829],[107.7349085,16.0362866],[107.7357617,16.0365681],[107.7381563,16.0380183],[107.7386265,16.0385049],[107.7388966,16.039266],[107.7402875,16.0390519],[107.7412501,16.0392071],[107.7430379,16.0403383],[107.7437836,16.0414468],[107.7478552,16.0426583],[107.7504095,16.0430142],[107.7521574,16.0429676],[107.7528012,16.0427975],[107.7538097,16.0440245],[107.7541304,16.0441483],[107.7547251,16.0440613],[107.7557814,16.0433597],[107.7563202,16.0432821],[107.7568996,16.043412],[107.7573824,16.0437461],[107.7592492,16.0464734],[107.7595282,16.0472716],[107.7598887,16.0478244],[107.760601,16.0484737],[107.7611804,16.0492366],[107.7652079,16.0507677],[107.7667895,16.051051],[107.7688166,16.0511168],[107.769697,16.0515045],[107.7699671,16.0518577],[107.7703384,16.0528452],[107.7706969,16.055392],[107.7722696,16.0571073],[107.7741408,16.0584439],[107.7747194,16.0593371],[107.7751147,16.0603342],[107.7753151,16.0616264],[107.7752346,16.0632603],[107.7749542,16.0641624],[107.7742481,16.0654753],[107.7739531,16.0667434],[107.775836,16.0656402],[107.7787119,16.0643691],[107.7793872,16.0637948],[107.7797574,16.0631736],[107.7802818,16.0627193],[107.7808359,16.0625067],[107.7813882,16.0624699],[107.7827132,16.0646505],[107.7871013,16.0677228],[107.7921038,16.064588],[107.7931845,16.0640422],[107.793678,16.0630215],[107.796607,16.0617998],[107.7983826,16.0616709],[107.8013986,16.0604332],[107.8026259,16.0583511],[107.8033347,16.0576771],[107.804836,16.0566241],[107.805909,16.0544187],[107.806545,16.0536852],[107.8071856,16.0531804],[107.813918,16.0528196],[107.8146315,16.0529072],[107.8154039,16.0531856],[107.8167187,16.0551045],[107.8187648,16.0573896],[107.818754,16.0578845],[107.8185394,16.0582918],[107.8187326,16.0586836],[107.8186628,16.059462],[107.8197303,16.0611219],[107.8198323,16.061658],[107.820197,16.0622045],[107.8201648,16.0640706],[107.8199422,16.0649572],[107.8216481,16.0667511],[107.8221577,16.0675862],[107.8236973,16.0687718],[107.8249204,16.070143],[107.8244698,16.0730245],[107.8236222,16.0738957],[107.8227693,16.0757204],[107.822088,16.0764163],[107.8217447,16.0771689],[107.8216653,16.0779337],[107.8223991,16.0810193],[107.8224689,16.083045],[107.823177,16.0837254],[107.8255883,16.0848517],[107.8255722,16.0868129],[107.825776,16.0876067],[107.826409,16.088153],[107.8264519,16.0887406],[107.8267309,16.0891375],[107.826847,16.0898357],[107.8283188,16.090957],[107.8292093,16.0918229],[107.8323689,16.0930187],[107.8321468,16.0939154],[107.8322697,16.0952375],[107.8327768,16.096523],[107.8341456,16.0982119],[107.8355956,16.0991134],[107.8364754,16.1000824],[107.8367329,16.1006493],[107.8372908,16.1012781],[107.8379945,16.101371],[107.8384683,16.1018554],[107.8396004,16.102114],[107.8408205,16.1028552],[107.8416467,16.1036592],[107.842977,16.1037005],[107.8439641,16.1043705],[107.8454712,16.1045917],[107.8456518,16.1048271],[107.8457558,16.105762],[107.8473008,16.1071536],[107.8479351,16.1073759],[107.848455,16.1077569],[107.8492616,16.1087857],[107.8497825,16.1098725],[107.8506491,16.1103534],[107.851029,16.1108798],[107.8521302,16.1112915],[107.8537166,16.1121321],[107.8560676,16.1143048],[107.8559375,16.1174455],[107.8560764,16.1184799],[107.8558892,16.1194657],[107.8558838,16.1203882],[107.8554938,16.1211964],[107.8547967,16.1217146],[107.8543657,16.122264],[107.8542828,16.1231274],[107.8548217,16.1243821],[107.8549075,16.1252582],[107.8555023,16.1257268],[107.8558462,16.1262602],[107.8559375,16.1277163],[107.8576112,16.1288913],[107.8577869,16.130039],[107.8585224,16.1313634],[107.8585698,16.1325826],[107.8587675,16.132834],[107.8594297,16.1332354],[107.8601861,16.1350648],[107.8598857,16.136116],[107.8594307,16.13662],[107.8587232,16.1371193],[107.8575432,16.1375879],[107.8571498,16.1379247],[107.8572518,16.1387827],[107.858845,16.1450358],[107.859875,16.1463292],[107.8602934,16.147468],[107.8586841,16.1516983],[107.8584911,16.1526097],[107.858567,16.1530415],[107.859596,16.1543468],[107.8600895,16.154759],[107.8606152,16.1550166],[107.8615425,16.1552132],[107.8631151,16.1551815],[107.8634477,16.1555113],[107.8639841,16.1556658],[107.8647135,16.1567684],[107.8656632,16.1573765],[107.8664678,16.1573919],[107.8671169,16.1575929],[107.8682562,16.1573305],[107.871285,16.1578003],[107.8731573,16.1576444],[107.8737205,16.1579278],[107.8736633,16.1588635],[107.8743535,16.159623],[107.8749275,16.1606947],[107.8748152,16.1618851],[107.8754865,16.1632469],[107.8756463,16.1646723],[107.8760433,16.165641],[107.8760326,16.1665787],[107.8758197,16.1678526],[107.8759365,16.1684875],[107.8762793,16.1691445],[107.8761371,16.1700109],[107.8749704,16.1717464],[107.8746046,16.1726344],[107.8735113,16.17458],[107.8731734,16.1758474],[107.8722453,16.1778258],[107.8718622,16.1781494],[107.871269,16.1783256],[107.8706735,16.179392],[107.8700995,16.1797887],[107.868973,16.1810458],[107.8681576,16.1811694],[107.8679768,16.1813042],[107.8677689,16.1816195],[107.8674066,16.1829108],[107.8769177,16.1885056],[107.8772951,16.1889348],[107.8772557,16.1902263],[107.8768723,16.1908225],[107.8768641,16.1915966],[107.8763276,16.1929232],[107.8758055,16.1940242],[107.874684,16.1951028],[107.8747093,16.195741],[107.8753851,16.196715],[107.8759112,16.1969754],[107.8776097,16.1971294],[107.8780903,16.1976019],[107.8784466,16.1983658],[107.8831581,16.2000466],[107.8840475,16.2001055],[107.885474,16.1999318],[107.886673,16.1995949],[107.8870064,16.1996755],[107.8874481,16.2003027],[107.8881562,16.2005191],[107.8882046,16.2016959],[107.8884278,16.2023978],[107.8888452,16.2029759],[107.8896148,16.2034462],[107.8898711,16.2037598],[107.8898835,16.2059898],[107.8900981,16.2063297],[107.8904436,16.2064479],[107.8914821,16.2062782],[107.8931074,16.2056404],[107.894057,16.2055365],[107.8948295,16.2051553],[107.8976244,16.2070252],[107.898166,16.2076761],[107.8987187,16.2080915],[107.9009342,16.209369],[107.9028547,16.2099562],[107.9035883,16.2104104],[107.9042172,16.2113676],[107.9043245,16.2127172],[107.9045284,16.2132632],[107.9048717,16.2137577],[107.9056739,16.2143584],[107.9062308,16.2144546],[107.9083372,16.214094],[107.908862,16.214556],[107.9093456,16.2146746],[107.9100849,16.2154467],[107.9104198,16.2153503],[107.9113117,16.2154009],[107.9134569,16.2144596],[107.9147677,16.2132013],[107.9153993,16.2117022],[107.9163564,16.2106065],[107.9169524,16.2094411],[107.9180038,16.2081327],[107.9186582,16.2079678],[107.9203695,16.2069067],[107.9211969,16.2062205],[107.9213868,16.2058596],[107.9213995,16.2053562],[107.9220378,16.2046916],[107.9230463,16.204022],[107.9237681,16.2031433],[107.9243123,16.2021057],[107.925868,16.2014772],[107.9266512,16.2014566],[107.9278283,16.2005763],[107.9290165,16.1982992],[107.9295554,16.1975263],[107.9305994,16.1976445],[107.9319298,16.1971758],[107.9332709,16.1958673],[107.9344404,16.1952955],[107.9352221,16.1953264],[107.9360497,16.1950224],[107.9374103,16.1953356],[107.937836,16.1953264],[107.9383975,16.1950435],[107.9385227,16.1946258],[107.9392459,16.1945225],[107.9413246,16.1947304],[107.942841,16.1945021],[107.9435706,16.1946361],[107.9443762,16.1939641],[107.9461515,16.1933491],[107.9471559,16.1924523],[107.948302,16.1918851],[107.9491925,16.1909145],[107.9510164,16.1900305],[107.9522341,16.1900254],[107.9534914,16.1895605],[107.9551417,16.1893943],[107.9559906,16.1890938],[107.9563271,16.1892116],[107.9568372,16.1900129],[107.9580009,16.1901026],[107.9590791,16.1908033],[107.9598677,16.1910454],[107.9604256,16.191509],[107.9611391,16.191643],[107.9617506,16.1920087],[107.9633759,16.1919355],[107.9638044,16.1921899],[107.9640734,16.1926269],[107.9652107,16.1930906],[107.9675731,16.1931394],[107.9695363,16.1940177],[107.9699743,16.1953418],[107.9699904,16.1960167],[107.9706395,16.1962949],[107.9710364,16.1967997],[107.972061,16.199056],[107.9738332,16.1993174],[107.9756918,16.2001133],[107.9761219,16.2003851],[107.9784384,16.2026626],[107.9792041,16.2032155],[107.9794049,16.2034347],[107.979598,16.2045989],[107.979259,16.2052954],[107.9792983,16.2059104],[107.9798955,16.2069862],[107.9807138,16.2076794],[107.9807782,16.2081069],[107.9820174,16.2083387],[107.9823822,16.209302],[107.9826987,16.2097604],[107.9837179,16.2103065],[107.9845548,16.2110791],[107.9849592,16.2118399],[107.9857993,16.2120476],[107.9877037,16.2134023],[107.9880738,16.2137268],[107.9882723,16.2141698],[107.9895973,16.2133817],[107.9898442,16.2130311],[107.9911465,16.2120973],[107.9916465,16.2114758],[107.9938229,16.2096119],[107.9941746,16.2095553],[107.9949108,16.209849],[107.995255,16.209824],[107.9964455,16.2089227],[107.998513,16.2079884],[107.99911,16.2075764],[108.0000311,16.2072492],[108.0020428,16.2060928],[108.0036199,16.2049286],[108.0043539,16.2051138],[108.0050898,16.205114],[108.0054438,16.2052789],[108.006201,16.204405],[108.0068614,16.2038977],[108.0072419,16.2030488],[108.0081824,16.2019655],[108.0085982,16.2006255],[108.0094135,16.1995506],[108.0098426,16.1987057],[108.0120273,16.1964703],[108.0126707,16.1961677],[108.0132329,16.1954809],[108.0137784,16.1951132],[108.0142386,16.1944049],[108.0150993,16.1938661],[108.0154733,16.1937578],[108.0164035,16.1937864],[108.017716,16.194168],[108.0186443,16.1942391],[108.0232558,16.1933249],[108.0246604,16.1928856],[108.0251295,16.1929512],[108.0259305,16.1934177],[108.0267191,16.1929979],[108.0282265,16.1930803],[108.0321723,16.1909017],[108.0332869,16.1905809],[108.0337113,16.1906359],[108.0340201,16.1910145],[108.0344028,16.1912207],[108.0362946,16.1913004],[108.036899,16.1911744],[108.0381987,16.1902341],[108.0396171,16.1897673],[108.0423993,16.1882274],[108.043322,16.1874031],[108.0454168,16.1866225],[108.0502277,16.1836049],[108.0513633,16.1830947],[108.0526971,16.182719],[108.053804,16.1816228],[108.0556508,16.1802639],[108.0579772,16.1791438],[108.0588251,16.1790417],[108.0597251,16.1791643],[108.0607617,16.1796702],[108.0614108,16.180139],[108.0618946,16.1806565],[108.0627948,16.1825141],[108.0641413,16.1840545],[108.0669844,16.1833538],[108.0697326,16.1823736],[108.0705317,16.1822351],[108.0736953,16.182174],[108.0749989,16.183225],[108.0754064,16.1833507],[108.0785214,16.1825234],[108.0793537,16.1826149],[108.0801272,16.1830138],[108.0815381,16.1825759],[108.0827397,16.1823853],[108.0858047,16.1825213],[108.0873891,16.1818928],[108.0888015,16.1817361],[108.0911358,16.1803988],[108.0919908,16.1801364],[108.09246,16.1801517],[108.0931846,16.1803845],[108.0937482,16.1808037],[108.0939234,16.1812826],[108.0939032,16.182525],[108.0948213,16.1834853],[108.0963556,16.1844564],[108.0979521,16.1857461],[108.0999673,16.1865434],[108.1007213,16.1866743],[108.1014634,16.1865718],[108.1026086,16.185974],[108.1033958,16.1857654],[108.1038537,16.1858253],[108.1046862,16.1862386],[108.1051197,16.1862428],[108.1066513,16.1852945],[108.1076149,16.1851716],[108.1085582,16.1843498],[108.1097027,16.1836944],[108.1108289,16.1822597],[108.1110885,16.1821333],[108.1124123,16.1824797],[108.1132107,16.182252],[108.1141475,16.1821646],[108.1156936,16.1828032],[108.1160979,16.1828323],[108.1173276,16.1822888],[108.1188268,16.1812049],[108.1191613,16.1811288],[108.1235242,16.1823985],[108.1281116,16.1845569],[108.130727,16.1874116],[108.1319994,16.1882517],[108.1340141,16.19007],[108.1359682,16.1909998],[108.1362819,16.1914155],[108.1366785,16.1923391],[108.137078,16.1928041],[108.1379543,16.1932588],[108.138387,16.1936547],[108.1392764,16.1937647],[108.1400648,16.1942992],[108.1415538,16.195803],[108.1430618,16.1984682],[108.1436021,16.1990382],[108.1442827,16.1994588],[108.1458098,16.1998476],[108.1474215,16.1996851],[108.1486917,16.2005449],[108.1500907,16.2012446],[108.1510802,16.2014549],[108.1518763,16.2013675],[108.1528665,16.2007737],[108.1541594,16.2008498],[108.1556832,16.200397],[108.1561747,16.2042199],[108.1568635,16.2053904],[108.1576176,16.2059517],[108.1600066,16.2064474],[108.160826,16.2063911],[108.1626762,16.2055519],[108.1637266,16.2046592],[108.1649445,16.2041302],[108.1655756,16.2039522],[108.1673668,16.2038068],[108.1689089,16.2033676],[108.1692817,16.2030615],[108.1700715,16.2018048],[108.1706419,16.2014273],[108.1711552,16.2012949],[108.1714837,16.2015002],[108.1724674,16.2033927],[108.1743338,16.2036806],[108.1754749,16.2052401],[108.1770121,16.2059582],[108.177604,16.2059389],[108.1795579,16.2067009],[108.1806354,16.2067142],[108.1823856,16.2071907],[108.1898708,16.208218],[108.1922432,16.208983],[108.1947857,16.21023],[108.1969489,16.2115853],[108.1962079,16.213764],[108.1959466,16.2160422],[108.196176,16.2183235],[108.1968863,16.2205116],[108.198216,16.2228889],[108.1997121,16.2250474],[108.20134,16.2266723],[108.202731,16.2274911],[108.204302,16.2278814],[108.2059198,16.2278153],[108.20724,16.2273998],[108.2091647,16.2262963],[108.210928,16.2248324],[108.2120242,16.2235076],[108.2127737,16.2219213],[108.2131021,16.2202082],[108.4805829,16.3340091],[107.6919676,17.1109141],[107.5168222,16.9018096],[107.3891124,16.7425874],[107.3862414,16.7405358],[107.3843569,16.7399943],[107.3841074,16.7404759],[107.3837762,16.7402858],[107.3832867,16.7407032],[107.369476,16.7332235],[107.366944,16.7270227],[107.3662949,16.725836],[107.3641966,16.7234226],[107.3611785,16.7183788],[107.3598696,16.7165434],[107.3587824,16.715459],[107.3585607,16.7146626],[107.3574382,16.7127594],[107.3574463,16.7124653],[107.3570922,16.7120157],[107.3572424,16.711841],[107.3560307,16.710019],[107.3561145,16.7099426],[107.355699,16.7095128],[107.3552133,16.7097371],[107.3549277,16.7102489],[107.3544529,16.7105822],[107.3526672,16.7079157],[107.3515306,16.7088037],[107.3511265,16.7082666],[107.3515904,16.7078001],[107.3531073,16.7056477],[107.3534615,16.7054822],[107.3546471,16.705828],[107.3554408,16.7050054],[107.3564961,16.7046203],[107.3574218,16.7036385],[107.3572008,16.7026529],[107.3581137,16.702226],[107.3583763,16.7018175],[107.3584145,16.7006338],[107.3586442,16.6993377],[107.358273,16.6985798],[107.3576267,16.6986107],[107.3558007,16.6982173],[107.3545884,16.6981469],[107.3539857,16.6982912],[107.3532266,16.6986805],[107.3526531,16.6987442],[107.3525472,16.698224],[107.3499906,16.696683],[107.349233,16.6958684],[107.3484864,16.6946074],[107.3479767,16.6928069],[107.3477628,16.6924495],[107.346346,16.6916486],[107.3442693,16.6912055],[107.3436154,16.6908925],[107.3429606,16.690038],[107.3422823,16.6881429],[107.3414962,16.6871245],[107.3392376,16.6850978],[107.3370923,16.684218],[107.3365472,16.6836384],[107.3361667,16.6828328],[107.3360417,16.6816403],[107.3358711,16.6811642],[107.3354261,16.6806388],[107.3343838,16.6799029],[107.3339397,16.6790857],[107.3338679,16.6763903],[107.3337328,16.6758894],[107.3343256,16.6752779],[107.3345002,16.6748347],[107.3344369,16.6746715],[107.3335975,16.6744195],[107.3331267,16.674078],[107.3331575,16.6739637],[107.3328383,16.6738286],[107.3322428,16.6740852],[107.3315442,16.6741332],[107.3311003,16.6735301],[107.329958,16.6731237],[107.3290041,16.6729436],[107.3289667,16.6726595],[107.3279446,16.6722216],[107.3266362,16.6713423],[107.3245169,16.6703821],[107.3239465,16.6699043],[107.3239045,16.6696273],[107.3241209,16.6689907],[107.3246428,16.6685652],[107.3263246,16.6683648],[107.3282972,16.6690597],[107.3297089,16.6686185],[107.3305722,16.6681642],[107.3312319,16.668032],[107.3313442,16.6677644],[107.3302808,16.6661473],[107.3296941,16.6657359],[107.3284846,16.6653548],[107.3275007,16.6653051],[107.3247617,16.6655626],[107.3226205,16.6650742],[107.3219626,16.6646504],[107.3211667,16.6633619],[107.3205633,16.6628183],[107.3197775,16.6624919],[107.3182531,16.6623379],[107.3181749,16.6617947],[107.3183216,16.6608079],[107.3187003,16.6597808],[107.3191657,16.6590711],[107.3201488,16.6584655],[107.3210395,16.6577266],[107.3217452,16.6570209],[107.3222718,16.6562749],[107.3236488,16.6568862],[107.3243532,16.6564445],[107.3247394,16.655856],[107.3247807,16.6551936],[107.3244831,16.6543982],[107.3239133,16.6538954],[107.3240983,16.6537463],[107.3250291,16.6545352],[107.3259181,16.6538629],[107.3274283,16.65204],[107.328749,16.6498018],[107.32915,16.6485642],[107.3290189,16.6477794],[107.3294801,16.6467558],[107.3294494,16.6459882],[107.3296647,16.645644],[107.330085,16.6453483],[107.3301762,16.6448781],[107.3291758,16.644233],[107.3286624,16.6437365],[107.328581,16.6434343],[107.3286635,16.6425601],[107.328066,16.6427661],[107.3278013,16.6425613],[107.3274833,16.6425639],[107.3273291,16.6427528],[107.3269978,16.6424624],[107.3263675,16.6423673],[107.3257332,16.6424329],[107.3252356,16.6432103],[107.3249588,16.6444746],[107.3253027,16.6476226],[107.3251287,16.6485022],[107.3245392,16.6497378],[107.3232341,16.6516605],[107.3228511,16.653208],[107.3220786,16.6537232],[107.3216438,16.6531359],[107.3210433,16.6527454],[107.3202382,16.6525543],[107.3185408,16.6524653],[107.317361,16.651845],[107.3162421,16.650146],[107.3144478,16.6480286],[107.3094481,16.6434749],[107.3071466,16.640919],[107.3067984,16.6401781],[107.3067284,16.6391499],[107.3072144,16.6379634],[107.3079662,16.6370488],[107.3090555,16.636028],[107.3100436,16.6356188],[107.3117526,16.6354271],[107.3124348,16.6356407],[107.3131221,16.6361502],[107.3134587,16.6368851],[107.3133239,16.6380397],[107.3139676,16.6380756],[107.314032,16.6377364],[107.3143351,16.6378007],[107.3145376,16.6376567],[107.3147305,16.6377725],[107.315089,16.6388218],[107.3148796,16.6401264],[107.3153624,16.6403217],[107.3155615,16.6400596],[107.3158456,16.6395085],[107.3160026,16.6388371],[107.3157389,16.6376761],[107.3120642,16.6300329],[107.3108632,16.6269825],[107.3102204,16.6258233],[107.3102425,16.6251679],[107.3115958,16.6239773],[107.3136521,16.6230218],[107.3166552,16.6219051],[107.3191989,16.6212138],[107.3200136,16.6207009],[107.3208421,16.6198926],[107.3216909,16.6188938],[107.3223,16.6178318],[107.322843,16.6161876],[107.3231167,16.614716],[107.3233795,16.6141174],[107.324902,16.6125888],[107.3285159,16.6080259],[107.3248386,16.6050147],[107.326353,16.6038526],[107.3284244,16.6026688],[107.3293115,16.6024267],[107.3311888,16.6023158],[107.3312947,16.6017311],[107.3340869,16.5996182],[107.3344973,16.5987828],[107.333293,16.5982199],[107.3316824,16.5987062],[107.3308193,16.5993218],[107.3301601,16.5994434],[107.3292579,16.5989642],[107.3272151,16.599081],[107.3272178,16.5986864],[107.3266478,16.598716],[107.3266277,16.5985232],[107.3262253,16.5985887],[107.3259703,16.598349],[107.3248225,16.5982353],[107.3245104,16.5985274],[107.3242003,16.5982122],[107.3245651,16.5974976],[107.3245731,16.5971737],[107.3243505,16.5971609],[107.3243397,16.596472],[107.3240849,16.5956648],[107.3242566,16.5951919],[107.324447,16.5951045],[107.3243223,16.5947076],[107.3240876,16.5945505],[107.3240551,16.5919618],[107.3243101,16.5915684],[107.3252597,16.5910353],[107.3255199,16.5901485],[107.326515,16.5899429],[107.3268959,16.5895856],[107.3268262,16.5894622],[107.3261073,16.589511],[107.3260211,16.5893324],[107.3260161,16.5883414],[107.3263407,16.5879121],[107.326228,16.5875831],[107.3265204,16.5875754],[107.3265646,16.5870259],[107.3264366,16.5870253],[107.3264397,16.5868793],[107.3266625,16.5862567],[107.3258364,16.5862232],[107.3248707,16.585692],[107.3241761,16.5859739],[107.3237438,16.5852234],[107.3230295,16.5849932],[107.3230147,16.5837606],[107.3219043,16.5835472],[107.3212264,16.5835858],[107.3205364,16.5833159],[107.3192221,16.5830999],[107.3185769,16.5825696],[107.3180231,16.5824367],[107.3169878,16.5812233],[107.3168752,16.5806321],[107.316041,16.5804753],[107.3153224,16.5808301],[107.3149146,16.5808336],[107.3138635,16.5801474],[107.3136498,16.5793943],[107.3129527,16.5793474],[107.3125213,16.5794014],[107.3124146,16.579812],[107.3118728,16.5804856],[107.3116046,16.5805832],[107.3114598,16.5808969],[107.3098685,16.5819477],[107.3092626,16.5821374],[107.3084021,16.5821796],[107.307529,16.5827902],[107.303161,16.5838865],[107.3032303,16.5841928],[107.3030698,16.5852593],[107.3028713,16.58556],[107.3027131,16.5868093],[107.3020264,16.5865111],[107.301486,16.5865073],[107.300908,16.5858454],[107.3003144,16.5857061],[107.2993126,16.5844315],[107.2980916,16.5835446],[107.2978177,16.5830579],[107.2973138,16.5826244],[107.2975619,16.5822169],[107.2972758,16.5819866],[107.2952344,16.5814433],[107.2927943,16.5806064],[107.2916961,16.5808629],[107.2909004,16.5804819],[107.2903103,16.5798103],[107.2907397,16.579091],[107.2905939,16.578614],[107.2904983,16.5785087],[107.2894509,16.5784469],[107.2890861,16.5782272],[107.2887878,16.5777682],[107.2885179,16.5768371],[107.2870101,16.575312],[107.2863258,16.5752754],[107.2857233,16.5750523],[107.2850541,16.5753139],[107.2836185,16.5753922],[107.2832064,16.5752787],[107.2815639,16.5736603],[107.2813788,16.5723697],[107.2806101,16.5726887],[107.2802648,16.572692],[107.2800025,16.5725406],[107.279522,16.5719039],[107.2784182,16.5717051],[107.2779134,16.5719019],[107.2772873,16.5726546],[107.2768003,16.5726294],[107.2766554,16.5724417],[107.2765577,16.5717783],[107.2756396,16.5710934],[107.275553,16.5705059],[107.2751909,16.5700792],[107.2739166,16.5692862],[107.2734026,16.568696],[107.2726403,16.568149],[107.2718576,16.5671285],[107.2713286,16.5666805],[107.2711247,16.5656907],[107.2706419,16.5661946],[107.269907,16.5673001],[107.268862,16.5672866],[107.2683014,16.5675284],[107.2671014,16.5689403],[107.2670572,16.5696123],[107.2667592,16.5700508],[107.2663182,16.5704314],[107.2656423,16.5706833],[107.264843,16.5713517],[107.2615653,16.5723029],[107.2549535,16.5739004],[107.2545379,16.5742207],[107.2545379,16.574668],[107.2539693,16.5748223],[107.2536304,16.5753958],[107.2534843,16.5759959],[107.2531968,16.5762053],[107.2532344,16.5770691],[107.2525665,16.5767657],[107.2518529,16.5766329],[107.2513568,16.5766783],[107.2509263,16.5768814],[107.2489268,16.5789149],[107.2492325,16.5791102],[107.2491634,16.5800127],[107.2481811,16.5804881],[107.2470224,16.5818712],[107.2479933,16.5831565],[107.2480142,16.5845279],[107.2478278,16.5851684],[107.2473412,16.5856807],[107.2463572,16.5860459],[107.2457778,16.5865806],[107.2450992,16.5868376],[107.2447023,16.5875471],[107.2440076,16.5863389],[107.2429352,16.585728],[107.2423448,16.5848667],[107.2418559,16.5844437],[107.2414702,16.5842516],[107.2407031,16.5842464],[107.2403115,16.583686],[107.2392225,16.5826835],[107.2390079,16.5821282],[107.238332,16.5822002],[107.2375596,16.58201],[107.2372435,16.5824461],[107.2369158,16.5826629],[107.2361479,16.5823853],[107.2349126,16.582183],[107.2339335,16.5814604],[107.2330237,16.5817586],[107.2326503,16.5816637],[107.232407,16.5814213],[107.2317687,16.5817632],[107.2303144,16.5816908],[107.2296215,16.5812154],[107.2284186,16.5794393],[107.2283971,16.5791359],[107.2277909,16.579501],[107.2254735,16.5794804],[107.2242715,16.5801424],[107.2237327,16.5802361],[107.2228815,16.5799368],[107.2221744,16.5800048],[107.2221166,16.5792179],[107.221793,16.5789083],[107.220329,16.5789046],[107.2200726,16.5786109],[107.2196951,16.5784857],[107.2187948,16.5786012],[107.2179794,16.5780922],[107.2174916,16.5779701],[107.2165525,16.5781025],[107.2161448,16.5788223],[107.2161448,16.5796064],[107.2152784,16.5794431],[107.2142966,16.5796786],[107.2128054,16.5797285],[107.211467,16.5784161],[107.2099328,16.5786269],[107.208482,16.5790569],[107.2077817,16.5789868],[107.207095,16.5787195],[107.2061455,16.5787246],[107.2058703,16.5791879],[107.2048354,16.5795489],[107.2045599,16.5802251],[107.2034836,16.5807904],[107.2033963,16.5809971],[107.203474,16.5813416],[107.2025031,16.5826115],[107.2009706,16.5822037],[107.200419,16.5818429],[107.1990752,16.5817837],[107.1985992,16.5814483],[107.1980309,16.5812921],[107.1977931,16.581285],[107.1976376,16.5814856],[107.1970367,16.5815164],[107.1965593,16.5817015],[107.1952075,16.5817015],[107.1947461,16.5809611],[107.1939737,16.5806012],[107.1936243,16.5801435],[107.1921444,16.5795627],[107.1916562,16.5797323],[107.190806,16.5792388],[107.1906128,16.5793545],[107.1899892,16.579378],[107.1891377,16.5790322],[107.1884215,16.5791372],[107.187934,16.5789244],[107.1873851,16.5788831],[107.185463,16.5796578],[107.1846579,16.579604],[107.1842719,16.5800932],[107.1837853,16.5801064],[107.182754,16.5796501],[107.1827146,16.5786338],[107.1825045,16.5783236],[107.1816167,16.5783017],[107.1814638,16.5786398],[107.181317,16.5785893],[107.1806606,16.5780003],[107.1796775,16.5775164],[107.178514,16.5763436],[107.1775546,16.5763488],[107.1764077,16.5769652],[107.1757345,16.5775079],[107.1756252,16.5781775],[107.1741857,16.5779586],[107.1740414,16.5780722],[107.1740441,16.5784806],[107.1737747,16.5784932],[107.1721376,16.5780615],[107.1706094,16.5779796],[107.1702345,16.5781157],[107.169826,16.5785525],[107.1693279,16.5786334],[107.1689684,16.5780953],[107.1686253,16.5778492],[107.168208,16.5777942],[107.1675535,16.5779875],[107.1672987,16.5776973],[107.1661938,16.5772134],[107.1651738,16.5771399],[107.164938,16.5764053],[107.1636409,16.5758916],[107.1632079,16.5753421],[107.162905,16.5753145],[107.1621984,16.5755515],[107.1617549,16.5754742],[107.16102,16.5748128],[107.1594282,16.5739498],[107.1586403,16.5739293],[107.1569547,16.572925],[107.1564616,16.5732178],[107.1558856,16.5733568],[107.1557408,16.5738651],[107.1548628,16.5745986],[107.1541463,16.5748899],[107.1532539,16.5746998],[107.1521819,16.5740988],[107.1513083,16.5740628],[107.1501257,16.5737636],[107.1493826,16.573336],[107.1488643,16.5727015],[107.1473783,16.5725488],[107.1445711,16.5714099],[107.1437662,16.5713421],[107.1407256,16.5717126],[107.1392727,16.5705856],[107.137835,16.5698658],[107.137084,16.5685392],[107.1368293,16.5684134],[107.1350276,16.5677608],[107.1333423,16.5675597],[107.1322453,16.5672384],[107.1312111,16.5666443],[107.1303409,16.565665],[107.1294719,16.5654028],[107.1283895,16.5656157],[107.1275085,16.5654542],[107.1252689,16.5631121],[107.124615,16.5619328],[107.1230239,16.5604615],[107.1232481,16.5595485],[107.1243132,16.5582553],[107.1243937,16.5579639],[107.1236869,16.5573734],[107.1232939,16.5564157],[107.1222704,16.5552963],[107.1218973,16.5538942],[107.121886,16.5525191],[107.1225411,16.5501928],[107.1225733,16.5491901],[107.1223988,16.5490825],[107.1222353,16.5490616],[107.1220173,16.5493932],[107.1210004,16.5514955],[107.1205063,16.5519452],[107.1197677,16.5522497],[107.1172571,16.5524502],[107.1147305,16.5524142],[107.1144916,16.5517883],[107.1136252,16.5506115],[107.1127939,16.5509616],[107.1108895,16.5513087],[107.1102914,16.550869],[107.1095806,16.5505528],[107.1087751,16.5510338],[107.1080786,16.5511544],[107.1077787,16.5513318],[107.1070433,16.5511338],[107.1062761,16.5514971],[107.1041572,16.5518126],[107.103551,16.5522857],[107.1031021,16.5522453],[107.1023401,16.5525432],[107.1018356,16.5525892],[107.100445,16.5519154],[107.099635,16.5517715],[107.0972747,16.5503522],[107.0966095,16.5503625],[107.0946729,16.5499871],[107.0932816,16.5504545],[107.0921141,16.5505939],[107.0900863,16.5487582],[107.0890195,16.5483812],[107.0882678,16.5461716],[107.087028,16.5456671],[107.0863706,16.545663],[107.0848453,16.5463156],[107.084223,16.546367],[107.0830589,16.5463156],[107.082324,16.5458374],[107.0811734,16.5457576],[107.0806235,16.5463233],[107.0800051,16.5463822],[107.0795555,16.5462493],[107.0792019,16.5457345],[107.0785049,16.5457741],[107.0772922,16.5461459],[107.0765895,16.5461562],[107.0761925,16.5457088],[107.0761842,16.5442459],[107.0760691,16.5438781],[107.0753556,16.5432765],[107.0747668,16.5425484],[107.0743317,16.5423391],[107.0732768,16.5425647],[107.0723092,16.5432168],[107.0716948,16.5434704],[107.0699537,16.543549],[107.0692348,16.5439604],[107.0682639,16.5438679],[107.0653349,16.5444232],[107.0636278,16.5451555],[107.0630765,16.545606],[107.0610434,16.5457499],[107.0610809,16.5445878],[107.0601422,16.5438524],[107.0599383,16.5419549],[107.0609146,16.5407978],[107.0612897,16.5399289],[107.0613062,16.5395122],[107.0608659,16.5385237],[107.060861,16.5381958],[107.0610294,16.5379026],[107.0621377,16.5370027],[107.0621324,16.5359331],[107.0602466,16.5328016],[107.0595578,16.5302663],[107.0579481,16.5289159],[107.0569602,16.5264358],[107.0567612,16.524493],[107.0562275,16.5235916],[107.0563173,16.5232871],[107.056843,16.5227574],[107.0574224,16.5215848],[107.0578286,16.5197988],[107.0587635,16.5185864],[107.0591712,16.5176196],[107.0599812,16.5172133],[107.0608503,16.5171258],[107.0617798,16.5165089],[107.0624113,16.5158401],[107.0627546,16.5151509],[107.0645678,16.5140194],[107.0658982,16.5124456],[107.0661986,16.5116844],[107.0675239,16.5105339],[107.0686769,16.5102906],[107.0689666,16.5101157],[107.0698839,16.5101209],[107.0703882,16.5098277],[107.0715444,16.5106713],[107.073108,16.5110415],[107.074737,16.5105423],[107.0757003,16.5089081],[107.0764075,16.5083836],[107.0769735,16.508301],[107.0778716,16.5084339],[107.0786548,16.5082796],[107.079333,16.5089398],[107.079921,16.5088976],[107.0802819,16.508335],[107.0804787,16.5073743],[107.0819956,16.5047583],[107.0821202,16.5036711],[107.0840884,16.50273],[107.085694,16.5024404],[107.0882893,16.502735],[107.089389,16.5032802],[107.0901668,16.5042318],[107.090556,16.5045141],[107.0907864,16.5044494],[107.0911324,16.504098],[107.0915133,16.5041135],[107.0923982,16.5037286],[107.0931119,16.5040389],[107.0934686,16.5039437],[107.0943457,16.5044041],[107.0952952,16.5043578],[107.0951223,16.5036103],[107.0945227,16.502267],[107.0945442,16.5016446],[107.0951351,16.5000362],[107.0969421,16.497931],[107.0973629,16.4970284],[107.0976984,16.495781],[107.0977628,16.4935898],[107.0985246,16.4912957],[107.1000963,16.490555],[107.1002465,16.4921855],[107.100625,16.4930447],[107.1014804,16.4944333],[107.1023088,16.4949748],[107.1036583,16.4953283],[107.1046212,16.494886],[107.1053178,16.4952292],[107.1059201,16.4951475],[107.1068877,16.4944642],[107.1076993,16.4941129],[107.1091354,16.4926691],[107.1101332,16.4925096],[107.1107501,16.4917586],[107.1125686,16.4906643],[107.1130246,16.4897371],[107.1143683,16.4885261],[107.115112,16.4882877],[107.116828,16.4882454],[107.1179191,16.4877756],[107.1192524,16.4877426],[107.119596,16.4875913],[107.1197945,16.4871241],[107.1204275,16.4866251],[107.1205141,16.4860264],[107.1210262,16.4860539],[107.1212709,16.4859211],[107.1213716,16.4848968],[107.1247405,16.4819287],[107.1254995,16.4814092],[107.1255827,16.4805347],[107.1254003,16.4791664],[107.1256471,16.4787548],[107.1257973,16.4777723],[107.126051,16.4773019],[107.1267037,16.476878],[107.1285986,16.4764723],[107.1292412,16.4760696],[107.1297562,16.475514],[107.129944,16.4738319],[107.129724,16.4733792],[107.1290642,16.4727567],[107.1290857,16.4720108],[107.1293646,16.4717639],[107.1294317,16.4712803],[107.1297428,16.4705679],[107.1306038,16.470699],[107.1309659,16.4702515],[107.1309847,16.4698297],[107.131784,16.4692818],[107.1317732,16.468667],[107.1320713,16.4684684],[107.1322104,16.4675944],[107.1327496,16.4669282],[107.1328354,16.4663212],[107.1331197,16.4657193],[107.1330097,16.4641914],[107.1334474,16.4637502],[107.1336903,16.4620249],[107.133983,16.4617636],[107.1345091,16.4617118],[107.1351314,16.4607292],[107.1358234,16.4599935],[107.1356571,16.4586456],[107.1353298,16.4581157],[107.1357027,16.4562932],[107.1353303,16.4557727],[107.1351609,16.4551627],[107.1354076,16.4535729],[107.1351206,16.453362],[107.1343803,16.4534135],[107.1332169,16.4524149],[107.1327495,16.4519524],[107.1315251,16.4499124],[107.1302314,16.4486192],[107.1325952,16.4465459],[107.1339597,16.4455651],[107.1355947,16.4447693],[107.137678,16.4441312],[107.1384798,16.4434988],[107.1386236,16.4432832],[107.1380013,16.4424754],[107.137599,16.4413142],[107.1370894,16.4404894],[107.1378629,16.4399709],[107.1388,16.4398001],[107.1407372,16.438277],[107.1412361,16.4382667],[107.1417304,16.4375272],[107.1421641,16.4372789],[107.1434884,16.4371135],[107.1453405,16.4376366],[107.1469706,16.4377754],[107.1475285,16.4372994],[107.1484023,16.4348022],[107.1484136,16.4345019],[107.1479528,16.4333838],[107.1476734,16.4332373],[107.1467534,16.433317],[107.1464108,16.4324571],[107.1453982,16.4310712],[107.1445765,16.4293394],[107.1437399,16.4285486],[107.1440899,16.4276391],[107.1443367,16.4254343],[107.1456081,16.42431],[107.145835,16.4238421],[107.1458255,16.423266],[107.1453667,16.4223676],[107.1451789,16.4212921],[107.1446747,16.4201807],[107.1435528,16.4197694],[107.1431942,16.418941],[107.1424806,16.4187759],[107.14122,16.4182459],[107.1404475,16.4166971],[107.1404099,16.4156422],[107.1405065,16.4154132],[107.1415068,16.4147271],[107.1432853,16.4128686],[107.1430336,16.4111841],[107.1428084,16.4110255],[107.1422821,16.4110316],[107.1419656,16.4094415],[107.1412128,16.408716],[107.1409159,16.4082017],[107.140705,16.4063745],[107.1419817,16.4043572],[107.1418637,16.4033641],[107.1423197,16.4029421],[107.1425503,16.4023194],[107.1431635,16.401657],[107.1435749,16.4008167],[107.146929,16.3973769],[107.1478343,16.3966483],[107.1488062,16.39619],[107.1492666,16.3957863],[107.1511566,16.3925278],[107.1517937,16.3918757],[107.1524262,16.3914814],[107.1528929,16.3893045],[107.1511281,16.3885791],[107.1503464,16.3876655],[107.1494329,16.3875341],[107.1484966,16.3868828],[107.1481737,16.3861755],[107.1468082,16.3860159],[107.1463966,16.38616],[107.1461418,16.3864099],[107.1458811,16.387222],[107.1456401,16.3874634],[107.1448624,16.3876988],[107.1442777,16.3881105],[107.1416271,16.3883545],[107.1402027,16.389551],[107.1395087,16.3896596],[107.13909,16.3894212],[107.1384251,16.3885119],[107.1371079,16.3883156],[107.135362,16.3878017],[107.1342355,16.3868805],[107.1325945,16.38625],[107.1313869,16.3851723],[107.1295087,16.3842209],[107.129091,16.3837823],[107.1287691,16.3829794],[107.128222,16.3821868],[107.1268916,16.3836485],[107.1261835,16.3841219],[107.1251321,16.3845594],[107.1242751,16.3855127],[107.1232995,16.3859722],[107.1214661,16.386021],[107.1200644,16.3853915],[107.1194777,16.3853046],[107.118153,16.3854601],[107.1140804,16.3855013],[107.11198,16.3857542],[107.1108784,16.3862262],[107.1096759,16.386243],[107.1095166,16.3868468],[107.1084964,16.3873618],[107.1076366,16.3884835],[107.1071786,16.3897014],[107.1066943,16.3903413],[107.10604,16.3907273],[107.105053,16.3909175],[107.1043188,16.3919329],[107.1043722,16.392236],[107.1051001,16.3926211],[107.1050664,16.39293],[107.1039935,16.3938837],[107.1029361,16.3940841],[107.1024523,16.3946563],[107.1020886,16.3953757],[107.1008501,16.3959946],[107.1000288,16.3960041],[107.0997965,16.3963575],[107.0996867,16.3971031],[107.0991201,16.3975139],[107.0983914,16.3987074],[107.0974017,16.3991216],[107.0970433,16.4004218],[107.0962216,16.4010385],[107.095797,16.4025333],[107.0957548,16.4030771],[107.0953526,16.4037612],[107.0945915,16.4039359],[107.0940691,16.4042452],[107.0937642,16.4041388],[107.0935733,16.40387],[107.0936173,16.4034402],[107.0938725,16.4030059],[107.0935609,16.4022126],[107.0941101,16.4017093],[107.0943025,16.4010807],[107.0949981,16.4001817],[107.094952,16.3995101],[107.0952785,16.39886],[107.095127,16.3984221],[107.0946723,16.3981596],[107.094231,16.3983259],[107.0939252,16.3999174],[107.0934665,16.4003355],[107.0932359,16.4009762],[107.0926659,16.4016503],[107.0923601,16.4025612],[107.0923695,16.4032829],[107.0909385,16.404078],[107.0906207,16.4039584],[107.0904973,16.4033434],[107.0899072,16.4032186],[107.0895331,16.4026525],[107.0892018,16.4024248],[107.0889671,16.4024017],[107.0882463,16.4026725],[107.0874074,16.4022704],[107.0868415,16.4027773],[107.0860542,16.402412],[107.0854655,16.4030269],[107.0851815,16.4031123],[107.0844141,16.4027285],[107.0837891,16.4028417],[107.0831588,16.4024891],[107.0823997,16.4026525],[107.0818485,16.4026268],[107.0816863,16.4023824],[107.081701,16.4019154],[107.0823179,16.4012399],[107.0825419,16.400477],[107.0825566,16.4000769],[107.0822763,16.399853],[107.0806804,16.4005465],[107.0796111,16.4006113],[107.0790048,16.4004912],[107.0751679,16.4023914],[107.0722926,16.4027517],[107.07181,16.4029137],[107.0707583,16.4039764],[107.0694249,16.4045637],[107.0688111,16.4053144],[107.0675504,16.4057261],[107.0671776,16.4066172],[107.0652974,16.408577],[107.0652153,16.4094387],[107.0640154,16.4105721],[107.0636333,16.4107315],[107.0624311,16.4107048],[107.0614135,16.411469],[107.0613408,16.4100313],[107.06092,16.4090658],[107.060228,16.4084483],[107.0592838,16.4080521],[107.0580232,16.4067244],[107.0578194,16.4054482],[107.0584524,16.4047175],[107.0588546,16.4029014],[107.0592704,16.4021419],[107.0579374,16.4011255],[107.0563964,16.4004688],[107.056151,16.400086],[107.0561684,16.3994141],[107.0563817,16.3989658],[107.0575941,16.3984083],[107.0590532,16.3967667],[107.059026,16.3953882],[107.0585436,16.3945435],[107.0584577,16.3937304],[107.0580821,16.3926841],[107.058168,16.3922688],[107.0585972,16.3917748],[107.0586079,16.3909513],[107.0581573,16.3904985],[107.0577253,16.3888508],[107.0578073,16.3884309],[107.0581196,16.3880294],[107.0593965,16.3871893],[107.058738,16.3850846],[107.0582519,16.3845677],[107.0560974,16.3835301],[107.0548183,16.3819987],[107.0541716,16.381595],[107.0532492,16.3814203],[107.0521512,16.3814744],[107.0500113,16.3822928],[107.0494599,16.3823459],[107.0489317,16.3821855],[107.0474157,16.38125],[107.0458531,16.3807196],[107.045251,16.3803091],[107.0449126,16.3798091],[107.0440733,16.3773259],[107.0435194,16.3762466],[107.042774,16.3752781],[107.0412307,16.3738523],[107.0404172,16.3727168],[107.0400876,16.3719303],[107.0398124,16.3704823],[107.0394422,16.369598],[107.0391918,16.3694128],[107.0389898,16.3694387],[107.0379952,16.3702926],[107.0377962,16.3695563],[107.0371234,16.3685169],[107.036861,16.3677955],[107.0360894,16.3668541],[107.0357053,16.3653146],[107.0363724,16.3643117],[107.0362759,16.364147],[107.0351735,16.3636195],[107.0347041,16.361836],[107.0351206,16.3602238],[107.0348087,16.3590822],[107.0343474,16.3585237],[107.0344048,16.3581752],[107.0346451,16.3579292],[107.0346236,16.3571713],[107.0353472,16.3571193],[107.0371998,16.356608],[107.038518,16.3569825],[107.0390023,16.3568116],[107.039419,16.3564674],[107.03972,16.3558823],[107.0397824,16.354695],[107.0401617,16.3534652],[107.0405313,16.3530258],[107.0412228,16.3529325],[107.0414018,16.3527215],[107.0408507,16.3506426],[107.0411548,16.3493987],[107.0419572,16.3494731],[107.0438719,16.3491426],[107.044124,16.3489316],[107.0448187,16.3493897],[107.0455729,16.3493717],[107.0474572,16.3488698],[107.04826,16.3491632],[107.049162,16.3492946],[107.0502682,16.3497154],[107.0509652,16.3496981],[107.0515591,16.3493022],[107.05176,16.3488206],[107.0518488,16.3480926],[107.0525515,16.3474251],[107.0533025,16.3461674],[107.0548072,16.3471094],[107.0563897,16.3477966],[107.0580598,16.3475801],[107.0590064,16.3476531],[107.0601475,16.3473616],[107.0606558,16.3474787],[107.0608878,16.3480076],[107.061671,16.3477837],[107.061928,16.3475068],[107.0620168,16.3471099],[107.0615476,16.3457195],[107.0611998,16.3454319],[107.0604798,16.3453194],[107.0603259,16.3450742],[107.0606169,16.3447338],[107.0620275,16.3442892],[107.062127,16.3438406],[107.0617514,16.3423099],[107.0619584,16.3420004],[107.0627723,16.3415862],[107.0631053,16.3409337],[107.0626942,16.3386302],[107.0628624,16.3381004],[107.0636719,16.3369839],[107.0637448,16.3366363],[107.0636451,16.3363558],[107.0628619,16.3356454],[107.0627588,16.3354149],[107.062883,16.3346427],[107.0626956,16.3339218],[107.0629111,16.3321887],[107.0631705,16.3319723],[107.0651057,16.331352],[107.0652521,16.3311344],[107.065281,16.3305728],[107.0654729,16.330299],[107.065984,16.3300136],[107.0673286,16.3286816],[107.0683263,16.3286089],[107.0691519,16.327716],[107.0693075,16.3273855],[107.0698035,16.3270792],[107.0702572,16.3264884],[107.0711304,16.3260298],[107.0726305,16.3258668],[107.0738716,16.3252199],[107.0748492,16.3250048],[107.0765439,16.3234575],[107.0771564,16.323059],[107.0777516,16.3221766],[107.0781976,16.3220003],[107.0794744,16.3219973],[107.0799583,16.3218744],[107.0808357,16.3209887],[107.081511,16.3205239],[107.0817339,16.3194856],[107.0823688,16.3185448],[107.0822258,16.3176198],[107.0826887,16.3169591],[107.0825762,16.3150169],[107.0822295,16.3143844],[107.0821738,16.3136319],[107.0813316,16.3124426],[107.082672,16.3122122],[107.0838252,16.3125886],[107.08543,16.3120256],[107.0865217,16.3119355],[107.0878691,16.311633],[107.0888312,16.3111286],[107.0903783,16.3098541],[107.0919846,16.3076837],[107.0961289,16.3051709],[107.1083859,16.2967547],[107.1178204,16.2897888],[107.1226917,16.2866744],[107.1249227,16.285472],[107.128772,16.2825665],[107.132916,16.279658],[107.1348962,16.2780842],[107.1414765,16.2738379],[107.14562,16.2709072],[107.1463354,16.2699153],[107.1464652,16.268917]]]]}}]}