{
  "type": "FeatureCollection",
  "features": [
    {
      "type": "Feature",
      "properties": { "name": "Vietnam Boundary" },
      "geometry": {
        "type": "Polygon",
        "coordinates": [
          [
            [107.95, 21.54],
            [107.60, 21.90],
            [107.15, 22.35],
            [106.65, 22.65],
            [106.30, 22.85],
            [105.85, 22.95],
            [105.32, 23.38],
            [104.90, 22.90],
            [104.30, 22.75],
            [103.80, 22.60],
            [103.30, 22.45],
            [102.75, 22.40],
            [102.15, 22.40],
            [102.45, 21.75],
            [102.95, 21.15],
            [103.45, 20.70],
            [104.10, 20.65],
            [104.60, 20.25],
            [104.85, 19.80],
            [104.35, 19.40],
            [104.10, 19.10],
            [105.00, 18.90],
            [105.35, 18.35],
            [105.75, 18.00],
            [106.00, 17.80],
            [106.35, 17.30],
            [106.60, 16.85],
            [107.00, 16.50],
            [107.35, 16.20],
            [107.60, 15.65],
            [107.60, 15.20],
            [107.50, 14.70],
            [107.55, 14.30],
            [107.55, 13.80],
            [107.50, 13.30],
            [107.50, 12.80],
            [107.30, 12.00],
            [107.00, 11.85],
            [106.75, 11.70],
            [106.25, 11.55],
            [106.00, 11.40],
            [105.80, 11.00],
            [105.50, 10.80],
            [105.05, 10.60],
            [104.80, 10.45],
            [104.48, 10.38],
            [104.45, 9.80],
            [104.75, 8.60],
            [105.20, 8.65],
            [105.75, 9.10],
            [106.25, 9.45],
            [106.60, 9.80],
            [106.85, 10.05],
            [107.10, 10.30],
            [107.60, 10.60],
            [108.00, 10.80],
            [108.50, 11.15],
            [109.00, 11.50],
            [109.25, 12.00],
            [109.30, 12.25],
            [109.45, 12.90],
            [109.30, 13.40],
            [109.20, 13.80],
            [109.05, 14.30],
            [108.90, 15.10],
            [108.65, 15.55],
            [108.30, 15.90],
            [108.10, 16.25],
            [107.70, 16.50],
            [107.25, 17.00],
            [106.60, 17.50],
            [106.30, 17.90],
            [105.80, 18.70],
            [105.65, 19.30],
            [105.85, 19.80],
            [106.00, 20.00],
            [106.40, 20.30],
            [106.80, 20.70],
            [107.15, 20.95],
            [107.50, 21.20],
            [107.95, 21.54]
          ]
        ]
      }
    }
  ]
}
